[{"OBJECT_NAME":"STARLINK-2039","OBJECT_ID":"2021-012AM","EPOCH":"2026-03-09T06:52:04.911744","MEAN_MOTION":15.3022049,"ECCENTRICITY":0.00015243,"INCLINATION":53.1608,"RA_OF_ASC_NODE":66.9388,"ARG_OF_PERICENTER":96.2115,"MEAN_ANOMALY":263.9059,"EPHEMERIS_TYPE":0,"CLASSIFICATION_TYPE":"U","NORAD_CAT_ID":47655,"ELEMENT_SET_NO":999,"REV_AT_EPOCH":28002,"BSTAR":0.00041146881,"MEAN_MOTION_DOT":0.00011854,"MEAN_MOTION_DDOT":0},{"OBJECT_NAME":"ASRTU-1 (AO-123)","OBJECT_ID":"2024-199AY","EPOCH":"2026-03-09T22:36:42.151392","MEAN_MOTION":15.34070057,"ECCENTRICITY":0.0012786,"INCLINATION":97.3152,"RA_OF_ASC_NODE":298.5256,"ARG_OF_PERICENTER":309.3392,"MEAN_ANOMALY":50.6717,"EPHEMERIS_TYPE":0,"CLASSIFICATION_TYPE":"U","NORAD_CAT_ID":61781,"ELEMENT_SET_NO":999,"REV_AT_EPOCH":11870,"BSTAR":0.00032267684,"MEAN_MOTION_DOT":0.00010589,"MEAN_MOTION_DDOT":0}]
